{"type": "FeatureCollection", "features": [ {"type": "Feature", "properties": {"norad_id": 30814, "name": "FENGYUN 1C DEB", "group": "fengyun-1c-debris", "lat": 59.31928713051192, "lon": -53.68519917675013, "alt_km": 707.6208158930076, "timestamp": "2025-12-11T15:53:39.821244+00:00", "meta": {"OBJECT_NAME": "FENGYUN 1C DEB", "OBJECT_ID": "1999-025AUY", "EPOCH": "2025-12-11T04:41:43.352160", "MEAN_MOTION": 14.6036489, "ECCENTRICITY": 0.00304505, "INCLINATION": 99.0829, "RA_OF_ASC_NODE": 321.4462, "ARG_OF_PERICENTER": 237.7546, "MEAN_ANOMALY": 251.0988, "EPHEMERIS_TYPE": 0, "CLASSIFICATION_TYPE": "U", "NORAD_CAT_ID": 30814, "ELEMENT_SET_NO": 999, "REV_AT_EPOCH": 97719, "BSTAR": 0.0045029165, "MEAN_MOTION_DOT": 0.00021935, "MEAN_MOTION_DDOT": 0}, "tle": {"line1": "1 30814U 99025AUY 25345.19564065  .00021935  00000+0  45029-2 0  9997", "line2": "2 30814  99.0829 321.4462 0030450 237.7546 251.0988 14.60364890977190"}}, "geometry": {"type": "Point", "coordinates": [-53.68519917675013, 59.31928713051192]}}, {"type": "Feature", "properties": {"norad_id": 30815, "name": "FENGYUN 1C DEB", "group": "fengyun-1c-debris", "lat": 32.73252926841244, "lon": 135.3663179259097, "alt_km": 649.0123468558922, "timestamp": "2025-12-11T15:53:39.821254+00:00", "meta": {"OBJECT_NAME": "FENGYUN 1C DEB", "OBJECT_ID": "1999-025AUZ", "EPOCH": "2025-12-10T04:41:41.841888", "MEAN_MOTION": 14.73343001, "ECCENTRICITY": 0.00025014, "INCLINATION": 99.3018, "RA_OF_ASC_NODE": 139.7348, "ARG_OF_PERICENTER": 275.5288, "MEAN_ANOMALY": 262.8671, "EPHEMERIS_TYPE": 0, "CLASSIFICATION_TYPE": "U", "NORAD_CAT_ID": 30815, "ELEMENT_SET_NO": 999, "REV_AT_EPOCH": 97742, "BSTAR": 0.0058707062, "MEAN_MOTION_DOT": 0.00038158, "MEAN_MOTION_DDOT": 0}, "tle": {"line1": "1 30815U 99025AUZ 25344.19562317  .00038158  00000+0  58707-2 0  9997", "line2": "2 30815  99.3018 139.7348 0002501 275.5288 262.8671 14.73343001977426"}}, "geometry": {"type": "Point", "coordinates": [135.3663179259097, 32.73252926841244]}}, {"type": "Feature", "properties": {"norad_id": 30816, "name": "FENGYUN 1C DEB", "group": "fengyun-1c-debris", "lat": -45.70473783057453, "lon": -133.12044597594286, "alt_km": 875.9039856256186, "timestamp": "2025-12-11T15:53:39.821265+00:00", "meta": {"OBJECT_NAME": "FENGYUN 1C DEB", "OBJECT_ID": "1999-025AVA", "EPOCH": "2025-12-10T03:34:05.831904", "MEAN_MOTION": 14.17981524, "ECCENTRICITY": 0.00525921, "INCLINATION": 98.9144, "RA_OF_ASC_NODE": 54.6173, "ARG_OF_PERICENTER": 62.8182, "MEAN_ANOMALY": 1.2145, "EPHEMERIS_TYPE": 0, "CLASSIFICATION_TYPE": "U", "NORAD_CAT_ID": 30816, "ELEMENT_SET_NO": 999, "REV_AT_EPOCH": 96357, "BSTAR": 0.0022290483, "MEAN_MOTION_DOT": 4.583e-05, "MEAN_MOTION_DDOT": 0}, "tle": {"line1": "1 30816U 99025AVA 25344.14867861  .00004583  00000+0  22290-2 0  9998", "line2": "2 30816  98.9144  54.6173 0052592  62.8182   1.2145 14.17981524963576"}}, "geometry": {"type": "Point", "coordinates": [-133.12044597594286, -45.70473783057453]}}, {"type": "Feature", "properties": {"norad_id": 30817, "name": "FENGYUN 1C DEB", "group": "fengyun-1c-debris", "lat": 17.287066870333906, "lon": -26.843034761625177, "alt_km": 918.2170176807158, "timestamp": "2025-12-11T15:53:39.821274+00:00", "meta": {"OBJECT_NAME": "FENGYUN 1C DEB", "OBJECT_ID": "1999-025AVB", "EPOCH": "2025-12-10T17:31:26.355360", "MEAN_MOTION": 14.0071847, "ECCENTRICITY": 0.0057389, "INCLINATION": 98.7859, "RA_OF_ASC_NODE": 335.0195, "ARG_OF_PERICENTER": 250.4896, "MEAN_ANOMALY": 109.0065, "EPHEMERIS_TYPE": 0, "CLASSIFICATION_TYPE": "U", "NORAD_CAT_ID": 30817, "ELEMENT_SET_NO": 999, "REV_AT_EPOCH": 95881, "BSTAR": 0.00039319501, "MEAN_MOTION_DOT": 5.52e-06, "MEAN_MOTION_DDOT": 0}, "tle": {"line1": "1 30817U 99025AVB 25344.73016615  .00000552  00000+0  39320-3 0  9992", "line2": "2 30817  98.7859 335.0195 0057389 250.4896 109.0065 14.00718470958813"}}, "geometry": {"type": "Point", "coordinates": [-26.843034761625177, 17.287066870333906]}}, {"type": "Feature", "properties": {"norad_id": 30820, "name": "FENGYUN 1C DEB", "group": "fengyun-1c-debris", "lat": 18.46765551560842, "lon": -95.09659663850327, "alt_km": 788.0979838229314, "timestamp": "2025-12-11T15:53:39.821284+00:00", "meta": {"OBJECT_NAME": "FENGYUN 1C DEB", "OBJECT_ID": "1999-025AVE", "EPOCH": "2025-12-11T05:18:11.395008", "MEAN_MOTION": 14.21379227, "ECCENTRICITY": 0.00520881, "INCLINATION": 98.6753, "RA_OF_ASC_NODE": 81.5471, "ARG_OF_PERICENTER": 191.5743, "MEAN_ANOMALY": 233.0648, "EPHEMERIS_TYPE": 0, "CLASSIFICATION_TYPE": "U", "NORAD_CAT_ID": 30820, "ELEMENT_SET_NO": 999, "REV_AT_EPOCH": 96402, "BSTAR": 0.0030823796, "MEAN_MOTION_DOT": 6.785e-05, "MEAN_MOTION_DDOT": 0}, "tle": {"line1": "1 30820U 99025AVE 25345.22096522  .00006785  00000+0  30824-2 0  9999", "line2": "2 30820  98.6753  81.5471 0052088 191.5743 233.0648 14.21379227964027"}}, "geometry": {"type": "Point", "coordinates": [-95.09659663850327, 18.46765551560842]}}, {"type": "Feature", "properties": {"norad_id": 30821, "name": "FENGYUN 1C DEB", "group": "fengyun-1c-debris", "lat": 75.38077159027743, "lon": -13.911386179944353, "alt_km": 737.8080841191304, "timestamp": "2025-12-11T15:53:39.821294+00:00", "meta": {"OBJECT_NAME": "FENGYUN 1C DEB", "OBJECT_ID": "1999-025AVF", "EPOCH": "2025-12-09T09:00:54.203904", "MEAN_MOTION": 14.49621236, "ECCENTRICITY": 0.00863837, "INCLINATION": 99.1042, "RA_OF_ASC_NODE": 125.6863, "ARG_OF_PERICENTER": 216.0169, "MEAN_ANOMALY": 199.966, "EPHEMERIS_TYPE": 0, "CLASSIFICATION_TYPE": "U", "NORAD_CAT_ID": 30821, "ELEMENT_SET_NO": 999, "REV_AT_EPOCH": 98740, "BSTAR": 0.0015173236, "MEAN_MOTION_DOT": 6.063e-05, "MEAN_MOTION_DDOT": 0}, "tle": {"line1": "1 30821U 99025AVF 25343.37562736  .00006063  00000+0  15173-2 0  9998", "line2": "2 30821  99.1042 125.6863 0086383 216.0169 199.9660 14.49621236987401"}}, "geometry": {"type": "Point", "coordinates": [-13.911386179944353, 75.38077159027743]}}, {"type": "Feature", "properties": {"norad_id": 30822, "name": "FENGYUN 1C DEB", "group": "fengyun-1c-debris", "lat": 14.720314521869835, "lon": -163.93018223342105, "alt_km": 884.548781989467, "timestamp": "2025-12-11T15:53:39.821304+00:00", "meta": {"OBJECT_NAME": "FENGYUN 1C DEB", "OBJECT_ID": "1999-025AVG", "EPOCH": "2025-12-09T08:43:59.045376", "MEAN_MOTION": 14.11335561, "ECCENTRICITY": 0.00731385, "INCLINATION": 98.7355, "RA_OF_ASC_NODE": 11.5183, "ARG_OF_PERICENTER": 295.0429, "MEAN_ANOMALY": 79.4806, "EPHEMERIS_TYPE": 0, "CLASSIFICATION_TYPE": "U", "NORAD_CAT_ID": 30822, "ELEMENT_SET_NO": 999, "REV_AT_EPOCH": 96654, "BSTAR": 0.00059287446, "MEAN_MOTION_DOT": 1.056e-05, "MEAN_MOTION_DDOT": 0}, "tle": {"line1": "1 30822U 99025AVG 25343.36387784  .00001056  00000+0  59287-3 0  9998", "line2": "2 30822  98.7355  11.5183 0073138 295.0429  79.4806 14.11335561966540"}}, "geometry": {"type": "Point", "coordinates": [-163.93018223342105, 14.720314521869835]}}, {"type": "Feature", "properties": {"norad_id": 30823, "name": "FENGYUN 1C DEB", "group": "fengyun-1c-debris", "lat": -63.97021198500595, "lon": 145.1236436099975, "alt_km": 978.6026598095241, "timestamp": "2025-12-11T15:53:39.821314+00:00", "meta": {"OBJECT_NAME": "FENGYUN 1C DEB", "OBJECT_ID": "1999-025AVH", "EPOCH": "2025-12-11T04:49:03.254304", "MEAN_MOTION": 14.02553046, "ECCENTRICITY": 0.01340574, "INCLINATION": 98.7628, "RA_OF_ASC_NODE": 126.2691, "ARG_OF_PERICENTER": 88.908, "MEAN_ANOMALY": 37.3698, "EPHEMERIS_TYPE": 0, "CLASSIFICATION_TYPE": "U", "NORAD_CAT_ID": 30823, "ELEMENT_SET_NO": 999, "REV_AT_EPOCH": 96012, "BSTAR": 0.00063672691, "MEAN_MOTION_DOT": 1.02e-05, "MEAN_MOTION_DDOT": 0}, "tle": {"line1": "1 30823U 99025AVH 25345.20073211  .00001020  00000+0  63673-3 0  9996", "line2": "2 30823  98.7628 126.2691 0134057  88.9080  37.3698 14.02553046960122"}}, "geometry": {"type": "Point", "coordinates": [145.1236436099975, -63.97021198500595]}}, {"type": "Feature", "properties": {"norad_id": 30826, "name": "FENGYUN 1C DEB", "group": "fengyun-1c-debris", "lat": 66.62132491320197, "lon": 21.725515226657432, "alt_km": 651.7184741032197, "timestamp": "2025-12-11T15:53:39.821324+00:00", "meta": {"OBJECT_NAME": "FENGYUN 1C DEB", "OBJECT_ID": "1999-025AVL", "EPOCH": "2025-12-10T11:59:35.261952", "MEAN_MOTION": 14.8219794, "ECCENTRICITY": 0.01455689, "INCLINATION": 98.8671, "RA_OF_ASC_NODE": 179.2688, "ARG_OF_PERICENTER": 3.9584, "MEAN_ANOMALY": 26.5302, "EPHEMERIS_TYPE": 0, "CLASSIFICATION_TYPE": "U", "NORAD_CAT_ID": 30826, "ELEMENT_SET_NO": 999, "REV_AT_EPOCH": 253, "BSTAR": 0.00074860659, "MEAN_MOTION_DOT": 7.11e-05, "MEAN_MOTION_DDOT": 0}, "tle": {"line1": "1 30826U 99025AVL 25344.49971368  .00007110  00000+0  74861-3 0  9996", "line2": "2 30826  98.8671 179.2688 0145568   3.9584  26.5302 14.82197940  2532"}}, "geometry": {"type": "Point", "coordinates": [21.725515226657432, 66.62132491320197]}}, {"type": "Feature", "properties": {"norad_id": 30827, "name": "FENGYUN 1C DEB", "group": "fengyun-1c-debris", "lat": 72.01574310420233, "lon": -58.209284943171966, "alt_km": 768.201421581347, "timestamp": "2025-12-11T15:53:39.821334+00:00", "meta": {"OBJECT_NAME": "FENGYUN 1C DEB", "OBJECT_ID": "1999-025AVM", "EPOCH": "2025-12-11T05:31:34.049280", "MEAN_MOTION": 14.37749293, "ECCENTRICITY": 0.00435959, "INCLINATION": 99.0037, "RA_OF_ASC_NODE": 330.5761, "ARG_OF_PERICENTER": 183.204, "MEAN_ANOMALY": 176.8873, "EPHEMERIS_TYPE": 0, "CLASSIFICATION_TYPE": "U", "NORAD_CAT_ID": 30827, "ELEMENT_SET_NO": 999, "REV_AT_EPOCH": 96527, "BSTAR": 0.0040350501, "MEAN_MOTION_DOT": 0.00012251, "MEAN_MOTION_DDOT": 0}, "tle": {"line1": "1 30827U 99025AVM 25345.23025520  .00012251  00000+0  40351-2 0  9998", "line2": "2 30827  99.0037 330.5761 0043595 183.2040 176.8873 14.37749293965277"}}, "geometry": {"type": "Point", "coordinates": [-58.209284943171966, 72.01574310420233]}}]}